CCSDS_OMM_VERS = 2.0
CREATION_DATE  = 
ORIGINATOR     = 

OBJECT_NAME    = CZ-2C R/B
OBJECT_ID      = 2022-132E
CENTER_NAME    = EARTH
REF_FRAME      = TEME
TIME_SYSTEM    = UTC
MEAN_ELEMENT_THEORY = SGP/SGP4

EPOCH          = 2025-12-19T17:59:05.828064
MEAN_MOTION    = 15.55227220
ECCENTRICITY   = .0022051
INCLINATION    = 97.2937
RA_OF_ASC_NODE = 350.0839
ARG_OF_PERICENTER = 33.4675
MEAN_ANOMALY   = 326.7968

EPHEMERIS_TYPE = 0
CLASSIFICATION_TYPE = U
NORAD_CAT_ID   = 54039
ELEMENT_SET_NO = 999
REV_AT_EPOCH   = 17792
BSTAR          = .34431E-3
MEAN_MOTION_DOT = .23457E-3
MEAN_MOTION_DDOT = 0

CCSDS_OMM_VERS = 2.0
CREATION_DATE  = 
ORIGINATOR     = 

OBJECT_NAME    = GSLV R/B
OBJECT_ID      = 2022-138AN
CENTER_NAME    = EARTH
REF_FRAME      = TEME
TIME_SYSTEM    = UTC
MEAN_ELEMENT_THEORY = SGP/SGP4

EPOCH          = 2025-12-19T19:28:45.810912
MEAN_MOTION    = 14.96162879
ECCENTRICITY   = .0024167
INCLINATION    = 87.3824
RA_OF_ASC_NODE = 193.1055
ARG_OF_PERICENTER = 82.3631
MEAN_ANOMALY   = 278.0344

EPHEMERIS_TYPE = 0
CLASSIFICATION_TYPE = U
NORAD_CAT_ID   = 54149
ELEMENT_SET_NO = 999
REV_AT_EPOCH   = 17198
BSTAR          = .14407E-3
MEAN_MOTION_DOT = .166E-4
MEAN_MOTION_DDOT = 0

CCSDS_OMM_VERS = 2.0
CREATION_DATE  = 
ORIGINATOR     = 

OBJECT_NAME    = XRISM
OBJECT_ID      = 2023-137A
CENTER_NAME    = EARTH
REF_FRAME      = TEME
TIME_SYSTEM    = UTC
MEAN_ELEMENT_THEORY = SGP/SGP4

EPOCH          = 2025-12-19T13:48:03.981312
MEAN_MOTION    = 15.10398433
ECCENTRICITY   = .0007695
INCLINATION    = 31.0027
RA_OF_ASC_NODE = 81.4100
ARG_OF_PERICENTER = 313.8682
MEAN_ANOMALY   = 46.1320

EPHEMERIS_TYPE = 0
CLASSIFICATION_TYPE = U
NORAD_CAT_ID   = 57800
ELEMENT_SET_NO = 999
REV_AT_EPOCH   = 12566
BSTAR          = .2121E-3
MEAN_MOTION_DOT = .3667E-4
MEAN_MOTION_DDOT = 0

CCSDS_OMM_VERS = 2.0
CREATION_DATE  = 
ORIGINATOR     = 

OBJECT_NAME    = ACS3
OBJECT_ID      = 2024-077B
CENTER_NAME    = EARTH
REF_FRAME      = TEME
TIME_SYSTEM    = UTC
MEAN_ELEMENT_THEORY = SGP/SGP4

EPOCH          = 2025-12-19T07:47:55.922784
MEAN_MOTION    = 13.85787030
ECCENTRICITY   = .0076317
INCLINATION    = 97.2637
RA_OF_ASC_NODE = 307.4596
ARG_OF_PERICENTER = 322.1773
MEAN_ANOMALY   = 37.4040

EPHEMERIS_TYPE = 0
CLASSIFICATION_TYPE = U
NORAD_CAT_ID   = 59588
ELEMENT_SET_NO = 999
REV_AT_EPOCH   = 8305
BSTAR          = .16423E-1
MEAN_MOTION_DOT = .1927E-3
MEAN_MOTION_DDOT = 0

CCSDS_OMM_VERS = 2.0
CREATION_DATE  = 
ORIGINATOR     = 

OBJECT_NAME    = SZ-21 MODULE
OBJECT_ID      = 2025-246C
CENTER_NAME    = EARTH
REF_FRAME      = TEME
TIME_SYSTEM    = UTC
MEAN_ELEMENT_THEORY = SGP/SGP4

EPOCH          = 2025-12-19T05:59:43.928736
MEAN_MOTION    = 15.62811821
ECCENTRICITY   = .0005734
INCLINATION    = 41.4773
RA_OF_ASC_NODE = 336.3242
ARG_OF_PERICENTER = 295.0263
MEAN_ANOMALY   = 64.9981

EPHEMERIS_TYPE = 0
CLASSIFICATION_TYPE = U
NORAD_CAT_ID   = 66515
ELEMENT_SET_NO = 999
REV_AT_EPOCH   = 546
BSTAR          = .23433E-3
MEAN_MOTION_DOT = .21457E-3
MEAN_MOTION_DDOT = 0

