CZ-2C R/B               
1 54039U 22132E   25353.74937301  .00023457  00000+0  34431-3 0  9991
2 54039  97.2937 350.0839 0022051  33.4675 326.7968 15.55227220177924
GSLV R/B                
1 54149U 22138AN  25353.81164133  .00001660  00000+0  14407-3 0  9995
2 54149  87.3824 193.1055 0024167  82.3631 278.0344 14.96162879171981
XRISM                   
1 57800U 23137A   25353.57504608  .00003667  00000+0  21210-3 0  9999
2 57800  31.0027  81.4100 0007695 313.8682  46.1320 15.10398433125660
ACS3                    
1 59588U 24077B   25353.32495281  .00019270  00000+0  16423-1 0  9992
2 59588  97.2637 307.4596 0076317 322.1773  37.4040 13.85787030 83050
SZ-21 MODULE            
1 66515U 25246C   25353.24981399  .00021457  00000+0  23433-3 0  9991
2 66515  41.4773 336.3242 0005734 295.0263  64.9981 15.62811821  5467
